{
    "links": {
        "self": "http://www.neowsapp.com/rest/v1/neo/3788144?api_key=iIulBulltgU6a56xZRHN4H3l9WmuAYTsLGpBGhQ2"
    },
    "id": "3788144",
    "neo_reference_id": "3788144",
    "name": "(2017 UF43)",
    "designation": "2017 UF43",
    "nasa_jpl_url": "http://ssd.jpl.nasa.gov/sbdb.cgi?sstr=3788144",
    "absolute_magnitude_h": 23.5,
    "estimated_diameter": {
        "kilometers": {
            "estimated_diameter_min": 0.0530340723,
            "estimated_diameter_max": 0.1185877909
        },
        "meters": {
            "estimated_diameter_min": 53.0340723319,
            "estimated_diameter_max": 118.5877908577
        },
        "miles": {
            "estimated_diameter_min": 0.0329538346,
            "estimated_diameter_max": 0.0736870142
        },
        "feet": {
            "estimated_diameter_min": 173.9963058693,
            "estimated_diameter_max": 389.0675677576
        }
    },
    "is_potentially_hazardous_asteroid": false,
    "close_approach_data": [
        {
            "close_approach_date": "2015-11-12",
            "close_approach_date_full": "2015-Nov-12 19:23",
            "epoch_date_close_approach": 1447356180000,
            "relative_velocity": {
                "kilometers_per_second": "4.8742542225",
                "kilometers_per_hour": "17547.3152010042",
                "miles_per_hour": "10903.2192703129"
            },
            "miss_distance": {
                "astronomical": "1.6855446382",
                "lunar": "655.6768642598",
                "kilometers": "252153887.664640634",
                "miles": "156681160.3928593892"
            },
            "orbiting_body": "Juptr"
        },
        {
            "close_approach_date": "2017-10-25",
            "close_approach_date_full": "2017-Oct-25 01:55",
            "epoch_date_close_approach": 1508896500000,
            "relative_velocity": {
                "kilometers_per_second": "13.7968990175",
                "kilometers_per_hour": "49668.8364631289",
                "miles_per_hour": "30862.2834123258"
            },
            "miss_distance": {
                "astronomical": "0.0312803237",
                "lunar": "12.1680459193",
                "kilometers": "4679469.798430519",
                "miles": "2907687.7014744022"
            },
            "orbiting_body": "Earth"
        }
    ],
    "orbital_data": {
        "orbit_id": "4",
        "orbit_determination_date": "2017-12-18 08:57:50",
        "first_observation_date": "2017-10-28",
        "last_observation_date": "2017-11-12",
        "data_arc_in_days": 15,
        "observations_used": 45,
        "orbit_uncertainty": "8",
        "minimum_orbit_intersection": ".00999078",
        "jupiter_tisserand_invariant": "3.156",
        "epoch_osculation": "2458056.5",
        "eccentricity": ".6466435191969738",
        "semi_major_axis": "2.452871459966989",
        "inclination": "9.096127159115676",
        "ascending_node_longitude": "31.91830138518174",
        "orbital_period": "1403.171037612975",
        "perihelion_distance": ".8667380269561161",
        "perihelion_argument": "316.5172186347644",
        "aphelion_distance": "4.039004892977862",
        "perihelion_time": "2458020.588437686491",
        "mean_anomaly": "9.213532838346048",
        "mean_motion": ".2565617379135899",
        "equinox": "J2000",
        "orbit_class": {
            "orbit_class_type": "APO",
            "orbit_class_description": "Near-Earth asteroid orbits which cross the Earth’s orbit similar to that of 1862 Apollo",
            "orbit_class_range": "a (semi-major axis) > 1.0 AU; q (perihelion) < 1.017 AU"
        }
    },
    "is_sentry_object": false
}